{
  "type": "FeatureCollection",
  "features": [
    {
      "type": "Feature",
      "properties": {
        "norad_id": 66921,
        "name": "HULIANWANG DIGUI-111",
        "group": "last-30-days",
        "lat": 7.123470960972363,
        "lon": 123.43025352956403,
        "alt_km": 871.680653579222,
        "timestamp": "2025-12-12T16:50:31.913153+00:00",
        "meta_object_name": "HULIANWANG DIGUI-111",
        "meta_object_id": "2025-285G",
        "meta_epoch": "2025-12-12T08:16:05.608704",
        "meta_mean_motion": 14.05884755,
        "meta_eccentricity": 0.00069756,
        "meta_inclination": 50.0108,
        "meta_ra_of_asc_node": 118.8697,
        "meta_arg_of_pericenter": 293.7465,
        "meta_mean_anomaly": 66.2709,
        "meta_ephemeris_type": 0,
        "meta_classification_type": "U",
        "meta_norad_cat_id": 66921,
        "meta_element_set_no": 999,
        "meta_rev_at_epoch": 85,
        "meta_bstar": 0.00020898987,
        "meta_mean_motion_dot": 1.92e-06,
        "meta_mean_motion_ddot": 0,
        "tle_line1": "1 66921U 25285G   25346.34450936  .00000192  00000+0  20899-3 0  9992",
        "tle_line2": "2 66921  50.0108 118.8697 0006975 293.7465  66.2709 14.05884755   853"
      },
      "geometry": {
        "type": "Point",
        "coordinates": [
          123.43025352956403,
          7.123470960972363
        ]
      }
    },
    {
      "type": "Feature",
      "properties": {
        "norad_id": 66922,
        "name": "HULIANWANG DIGUI-112",
        "group": "last-30-days",
        "lat": 9.106920806405768,
        "lon": 125.13312482825877,
        "alt_km": 870.6958910655167,
        "timestamp": "2025-12-12T16:50:31.913163+00:00",
        "meta_object_name": "HULIANWANG DIGUI-112",
        "meta_object_id": "2025-285H",
        "meta_epoch": "2025-12-12T08:15:23.696064",
        "meta_mean_motion": 14.0599984,
        "meta_eccentricity": 0.00069476,
        "meta_inclination": 50.0083,
        "meta_ra_of_asc_node": 118.8631,
        "meta_arg_of_pericenter": 300.0444,
        "meta_mean_anomaly": 59.9772,
        "meta_ephemeris_type": 0,
        "meta_classification_type": "U",
        "meta_norad_cat_id": 66922,
        "meta_element_set_no": 999,
        "meta_rev_at_epoch": 85,
        "meta_bstar": 3.250463e-06,
        "meta_mean_motion_dot": -1.47e-06,
        "meta_mean_motion_ddot": 0,
        "tle_line1": "1 66922U 25285H   25346.34402426 -.00000147  00000+0  32505-5 0  9994",
        "tle_line2": "2 66922  50.0083 118.8631 0006947 300.0444  59.9772 14.05999840   853"
      },
      "geometry": {
        "type": "Point",
        "coordinates": [
          125.13312482825877,
          9.106920806405768
        ]
      }
    },
    {
      "type": "Feature",
      "properties": {
        "norad_id": 66923,
        "name": "HULIANWANG DIGUI-113",
        "group": "last-30-days",
        "lat": 10.112726246146156,
        "lon": 126.00905395373586,
        "alt_km": 871.1470755843238,
        "timestamp": "2025-12-12T16:50:31.913174+00:00",
        "meta_object_name": "HULIANWANG DIGUI-113",
        "meta_object_id": "2025-285J",
        "meta_epoch": "2025-12-12T08:15:02.286144",
        "meta_mean_motion": 14.06056256,
        "meta_eccentricity": 0.0005401,
        "meta_inclination": 50.008,
        "meta_ra_of_asc_node": 118.8627,
        "meta_arg_of_pericenter": 294.9369,
        "meta_mean_anomaly": 65.0975,
        "meta_ephemeris_type": 0,
        "meta_classification_type": "U",
        "meta_norad_cat_id": 66923,
        "meta_element_set_no": 999,
        "meta_rev_at_epoch": 85,
        "meta_bstar": 0.00020190093,
        "meta_mean_motion_dot": 1.81e-06,
        "meta_mean_motion_ddot": 0,
        "tle_line1": "1 66923U 25285J   25346.34377646  .00000181  00000+0  20190-3 0  9992",
        "tle_line2": "2 66923  50.0080 118.8627 0005401 294.9369  65.0975 14.06056256   856"
      },
      "geometry": {
        "type": "Point",
        "coordinates": [
          126.00905395373586,
          10.112726246146156
        ]
      }
    },
    {
      "type": "Feature",
      "properties": {
        "norad_id": 66924,
        "name": "CZ-8A R/B",
        "group": "last-30-days",
        "lat": -23.582125435747862,
        "lon": -42.18923153042624,
        "alt_km": 813.9884324564391,
        "timestamp": "2025-12-12T16:50:31.913185+00:00",
        "meta_object_name": "CZ-8A R/B",
        "meta_object_id": "2025-285K",
        "meta_epoch": "2025-12-11T18:04:29.351136",
        "meta_mean_motion": 14.3050121,
        "meta_eccentricity": 0.01193225,
        "meta_inclination": 50.0063,
        "meta_ra_of_asc_node": 120.3543,
        "meta_arg_of_pericenter": 103.2592,
        "meta_mean_anomaly": 258.1664,
        "meta_ephemeris_type": 0,
        "meta_classification_type": "U",
        "meta_norad_cat_id": 66924,
        "meta_element_set_no": 999,
        "meta_rev_at_epoch": 78,
        "meta_bstar": 9.6804415e-05,
        "meta_mean_motion_dot": 1.07e-06,
        "meta_mean_motion_ddot": 0,
        "tle_line1": "1 66924U 25285K   25345.75311749  .00000107  00000+0  96804-4 0  9993",
        "tle_line2": "2 66924  50.0063 120.3543 0119322 103.2592 258.1664 14.30501210   785"
      },
      "geometry": {
        "type": "Point",
        "coordinates": [
          -42.18923153042624,
          -23.582125435747862
        ]
      }
    },
    {
      "type": "Feature",
      "properties": {
        "norad_id": 66953,
        "name": "HULIANWANG DIGUI-114",
        "group": "last-30-days",
        "lat": 4.317783239291987,
        "lon": -13.565434547111213,
        "alt_km": 1012.5660488333106,
        "timestamp": "2025-12-12T16:50:31.913209+00:00",
        "meta_object_name": "HULIANWANG DIGUI-114",
        "meta_object_id": "2025-287A",
        "meta_epoch": "2025-12-11T05:43:48.442368",
        "meta_mean_motion": 13.68688345,
        "meta_eccentricity": 0.00085506,
        "meta_inclination": 86.4966,
        "meta_ra_of_asc_node": 346.7027,
        "meta_arg_of_pericenter": 209.4482,
        "meta_mean_anomaly": 150.6197,
        "meta_ephemeris_type": 0,
        "meta_classification_type": "U",
        "meta_norad_cat_id": 66953,
        "meta_element_set_no": 999,
        "meta_rev_at_epoch": 32,
        "meta_bstar": 1.3583638e-05,
        "meta_mean_motion_dot": 2.8e-07,
        "meta_mean_motion_ddot": 0,
        "tle_line1": "1 66953U 25287A   25345.23875512  .00000028  00000+0  13584-4 0  9999",
        "tle_line2": "2 66953  86.4966 346.7027 0008550 209.4482 150.6197 13.68688345   322"
      },
      "geometry": {
        "type": "Point",
        "coordinates": [
          -13.565434547111213,
          4.317783239291987
        ]
      }
    },
    {
      "type": "Feature",
      "properties": {
        "norad_id": 66954,
        "name": "HULIANWANG DIGUI-115",
        "group": "last-30-days",
        "lat": 5.655887754776284,
        "lon": -13.479706867699237,
        "alt_km": 1012.079522852011,
        "timestamp": "2025-12-12T16:50:31.913221+00:00",
        "meta_object_name": "HULIANWANG DIGUI-115",
        "meta_object_id": "2025-287B",
        "meta_epoch": "2025-12-12T06:17:16.979712",
        "meta_mean_motion": 13.68791396,
        "meta_eccentricity": 0.00085357,
        "meta_inclination": 86.4972,
        "meta_ra_of_asc_node": 346.333,
        "meta_arg_of_pericenter": 205.6175,
        "meta_mean_anomaly": 154.4563,
        "meta_ephemeris_type": 0,
        "meta_classification_type": "U",
        "meta_norad_cat_id": 66954,
        "meta_element_set_no": 999,
        "meta_rev_at_epoch": 46,
        "meta_bstar": 2.0856965e-05,
        "meta_mean_motion_dot": 3.4e-07,
        "meta_mean_motion_ddot": 0,
        "tle_line1": "1 66954U 25287B   25346.26200208  .00000034  00000+0  20857-4 0  9996",
        "tle_line2": "2 66954  86.4972 346.3330 0008535 205.6175 154.4563 13.68791396   468"
      },
      "geometry": {
        "type": "Point",
        "coordinates": [
          -13.479706867699237,
          5.655887754776284
        ]
      }
    },
    {
      "type": "Feature",
      "properties": {
        "norad_id": 66955,
        "name": "HULIANWANG DIGUI-116",
        "group": "last-30-days",
        "lat": 7.1631578165026175,
        "lon": -13.393429598201323,
        "alt_km": 1011.2427375480529,
        "timestamp": "2025-12-12T16:50:31.913233+00:00",
        "meta_object_name": "HULIANWANG DIGUI-116",
        "meta_object_id": "2025-287C",
        "meta_epoch": "2025-12-12T06:16:53.560128",
        "meta_mean_motion": 13.68903008,
        "meta_eccentricity": 0.00079376,
        "meta_inclination": 86.4908,
        "meta_ra_of_asc_node": 346.3254,
        "meta_arg_of_pericenter": 199.624,
        "meta_mean_anomaly": 160.4615,
        "meta_ephemeris_type": 0,
        "meta_classification_type": "U",
        "meta_norad_cat_id": 66955,
        "meta_element_set_no": 999,
        "meta_rev_at_epoch": 46,
        "meta_bstar": 2.095305e-05,
        "meta_mean_motion_dot": 3.5e-07,
        "meta_mean_motion_ddot": 0,
        "tle_line1": "1 66955U 25287C   25346.26173102  .00000035  00000+0  20953-4 0  9997",
        "tle_line2": "2 66955  86.4908 346.3254 0007937 199.6240 160.4615 13.68903008   463"
      },
      "geometry": {
        "type": "Point",
        "coordinates": [
          -13.393429598201323,
          7.1631578165026175
        ]
      }
    }
  ]
}